start=new Date('2022-10-08T00:00:00.000Z').valueOf();
sats=[{"TIME_SYSTEM":"UTC","ECCENTRICITY":"0.00017400","FILE":"3595773","REV_AT_EPOCH":"11671","RA_OF_ASC_NODE":"177.6931","ARG_OF_PERICENTER":"77.8225","COUNTRY_CODE":"US","MEAN_ELEMENT_THEORY":"SGP4","OBJECT_NAME":"STARLINK-1707","LAUNCH_DATE":"2020-09-03","MEAN_MOTION":"15.06395608","REF_FRAME":"TEME","RCS_SIZE":"LARGE","TLE_LINE1":"1 46359U 20062AL  22280.89349873  .00000428  00000-0  47669-4 0  9992","MEAN_ANOMALY":"282.2959","OBJECT_TYPE":"PAYLOAD","TLE_LINE2":"2 46359  53.0540 177.6931 0001740  77.8225 282.2959 15.06395608116719","GP_ID":"214431960","EPOCH":"2022-10-07T21:26:38.290272","CLASSIFICATION_TYPE":"U","DECAY_DATE":null,"APOAPSIS":"548.432","MEAN_MOTION_DDOT":"0.0000000000000","BSTAR":"0.00004766900000","ELEMENT_SET_NO":"999","SITE":"AFETR","INCLINATION":"53.0540","PERIAPSIS":"546.022","NORAD_CAT_ID":"46359","MEAN_MOTION_DOT":"0.00000428","CENTER_NAME":"EARTH","SEMIMAJOR_AXIS":"6925.362","OBJECT_ID":"2020-062AL","EPHEMERIS_TYPE":"0","PERIOD":"95.592"},{"OBJECT_TYPE":"PAYLOAD","TLE_LINE2":"2 46360  53.0542 181.1664 0001538  71.6804 288.4352 15.06390390116781","MEAN_ANOMALY":"288.4352","TLE_LINE1":"1 46360U 20062AM  22280.11945708  .00002131  00000-0  16198-3 0  9993","LAUNCH_DATE":"2020-09-03","REF_FRAME":"TEME","MEAN_MOTION":"15.06390390","RCS_SIZE":"LARGE","ECCENTRICITY":"0.00015380","TIME_SYSTEM":"UTC","REV_AT_EPOCH":"11678","RA_OF_ASC_NODE":"181.1664","FILE":"3594687","ARG_OF_PERICENTER":"71.6804","COUNTRY_CODE":"US","OBJECT_NAME":"STARLINK-1713","MEAN_ELEMENT_THEORY":"SGP4","SEMIMAJOR_AXIS":"6925.378","OBJECT_ID":"2020-062AM","EPHEMERIS_TYPE":"0","PERIOD":"95.593","CENTER_NAME":"EARTH","SITE":"AFETR","BSTAR":"0.00016198000000","ELEMENT_SET_NO":"999","PERIAPSIS":"546.178","NORAD_CAT_ID":"46360","INCLINATION":"53.0542","MEAN_MOTION_DOT":"0.00002131","GP_ID":"214364047","EPOCH":"2022-10-07T02:52:01.091712","CLASSIFICATION_TYPE":"U","DECAY_DATE":null,"APOAPSIS":"548.308","MEAN_MOTION_DDOT":"0.0000000000000"},{"ELEMENT_SET_NO":"999","BSTAR":"0.00025625000000","SITE":"AFETR","MEAN_MOTION_DOT":"0.00003538","INCLINATION":"53.0534","NORAD_CAT_ID":"46361","PERIAPSIS":"546.106","DECAY_DATE":null,"CLASSIFICATION_TYPE":"U","EPOCH":"2022-10-07T21:14:39.901920","GP_ID":"214432962","MEAN_MOTION_DDOT":"0.0000000000000","APOAPSIS":"548.289","EPHEMERIS_TYPE":"0","OBJECT_ID":"2020-062AN","SEMIMAJOR_AXIS":"6925.332","PERIOD":"95.592","CENTER_NAME":"EARTH","LAUNCH_DATE":"2020-09-03","RCS_SIZE":"LARGE","MEAN_MOTION":"15.06405329","REF_FRAME":"TEME","FILE":"3595773","REV_AT_EPOCH":"11671","RA_OF_ASC_NODE":"177.6993","TIME_SYSTEM":"UTC","ECCENTRICITY":"0.00015760","MEAN_ELEMENT_THEORY":"SGP4","OBJECT_NAME":"STARLINK-1722","ARG_OF_PERICENTER":"119.8304","COUNTRY_CODE":"US","OBJECT_TYPE":"PAYLOAD","TLE_LINE2":"2 46361  53.0534 177.6993 0001576 119.8304 240.2842 15.06405329116712","TLE_LINE1":"1 46361U 20062AN  22280.88518405  .00003538  00000-0  25625-3 0  9995","MEAN_ANOMALY":"240.2842"},{"MEAN_ANOMALY":"268.0893","TLE_LINE1":"1 46362U 20062AP  22280.86401404  .00005150  00000-0  36428-3 0  9999","TLE_LINE2":"2 46362  53.0541 177.8214 0001326  92.0248 268.0893 15.06406664116718","OBJECT_TYPE":"PAYLOAD","OBJECT_NAME":"STARLINK-1726","MEAN_ELEMENT_THEORY":"SGP4","ARG_OF_PERICENTER":"92.0248","COUNTRY_CODE":"US","REV_AT_EPOCH":"11671","RA_OF_ASC_NODE":"177.8214","FILE":"3595773","ECCENTRICITY":"0.00013260","TIME_SYSTEM":"UTC","RCS_SIZE":"LARGE","REF_FRAME":"TEME","MEAN_MOTION":"15.06406664","LAUNCH_DATE":"2020-09-03","CENTER_NAME":"EARTH","PERIOD":"95.592","EPHEMERIS_TYPE":"0","OBJECT_ID":"2020-062AP","SEMIMAJOR_AXIS":"6925.328","MEAN_MOTION_DDOT":"0.0000000000000","APOAPSIS":"548.111","DECAY_DATE":null,"CLASSIFICATION_TYPE":"U","GP_ID":"214433711","EPOCH":"2022-10-07T20:44:10.813056","MEAN_MOTION_DOT":"0.00005150","PERIAPSIS":"546.275","NORAD_CAT_ID":"46362","INCLINATION":"53.0541","SITE":"AFETR","BSTAR":"0.00036428000000","ELEMENT_SET_NO":"999"},{"CENTER_NAME":"EARTH","OBJECT_ID":"2020-062AQ","EPHEMERIS_TYPE":"0","SEMIMAJOR_AXIS":"6925.363","PERIOD":"95.592","DECAY_DATE":null,"CLASSIFICATION_TYPE":"U","EPOCH":"2022-10-07T20:32:12.213888","GP_ID":"214409735","APOAPSIS":"548.239","MEAN_MOTION_DDOT":"0.0000000000000","SITE":"AFETR","BSTAR":"0.00023465000000","ELEMENT_SET_NO":"999","MEAN_MOTION_DOT":"0.00003215","NORAD_CAT_ID":"46363","PERIAPSIS":"546.217","INCLINATION":"53.0545","MEAN_ANOMALY":"268.3712","TLE_LINE1":"1 46363U 20062AQ  22280.85569692  .00003215  00000-0  23465-3 0  9990","OBJECT_TYPE":"PAYLOAD","TLE_LINE2":"2 46363  53.0545 177.8327 0001460  91.7444 268.3712 15.06395169116867","REV_AT_EPOCH":"11686","RA_OF_ASC_NODE":"177.8327","FILE":"3595609","ECCENTRICITY":"0.00014600","TIME_SYSTEM":"UTC","OBJECT_NAME":"STARLINK-1739","MEAN_ELEMENT_THEORY":"SGP4","ARG_OF_PERICENTER":"91.7444","COUNTRY_CODE":"US","LAUNCH_DATE":"2020-09-03","RCS_SIZE":"LARGE","REF_FRAME":"TEME","MEAN_MOTION":"15.06395169"},{"TLE_LINE1":"1 46364U 20062AR  22280.85855202  .00002154  00000-0  16350-3 0  9992","MEAN_ANOMALY":"235.8147","OBJECT_TYPE":"PAYLOAD","TLE_LINE2":"2 46364  53.0562 158.3336 0001304 124.2966 235.8147 15.06390483117168","FILE":"3595610","REV_AT_EPOCH":"11716","RA_OF_ASC_NODE":"158.3336","TIME_SYSTEM":"UTC","ECCENTRICITY":"0.00013040","MEAN_ELEMENT_THEORY":"SGP4","OBJECT_NAME":"STARLINK-1763","COUNTRY_CODE":"US","ARG_OF_PERICENTER":"124.2966","LAUNCH_DATE":"2020-09-03","RCS_SIZE":"LARGE","MEAN_MOTION":"15.06390483","REF_FRAME":"TEME","CENTER_NAME":"EARTH","EPHEMERIS_TYPE":"0","OBJECT_ID":"2020-062AR","SEMIMAJOR_AXIS":"6925.378","PERIOD":"95.593","CLASSIFICATION_TYPE":"U","DECAY_DATE":null,"EPOCH":"2022-10-07T20:36:18.894528","GP_ID":"214409253","MEAN_MOTION_DDOT":"0.0000000000000","APOAPSIS":"548.146","BSTAR":"0.00016350000000","ELEMENT_SET_NO":"999","SITE":"AFETR","MEAN_MOTION_DOT":"0.00002154","INCLINATION":"53.0562","NORAD_CAT_ID":"46364","PERIAPSIS":"546.340"},{"CENTER_NAME":"EARTH","SEMIMAJOR_AXIS":"6925.357","OBJECT_ID":"2020-062AS","EPHEMERIS_TYPE":"0","PERIOD":"95.592","GP_ID":"214433461","EPOCH":"2022-10-07T21:37:15.712320","CLASSIFICATION_TYPE":"U","DECAY_DATE":null,"APOAPSIS":"548.321","MEAN_MOTION_DDOT":"0.0000000000000","SITE":"AFETR","BSTAR":"0.00016062000000","ELEMENT_SET_NO":"999","PERIAPSIS":"546.123","NORAD_CAT_ID":"46365","INCLINATION":"53.0539","MEAN_MOTION_DOT":"0.00002112","MEAN_ANOMALY":"257.5928","TLE_LINE1":"1 46365U 20062AS  22280.90087630  .00002112  00000-0  16062-3 0  9995","OBJECT_TYPE":"PAYLOAD","TLE_LINE2":"2 46365  53.0539 177.6498 0001587 102.5239 257.5928 15.06397159116716","ECCENTRICITY":"0.00015870","TIME_SYSTEM":"UTC","REV_AT_EPOCH":"11671","RA_OF_ASC_NODE":"177.6498","FILE":"3595773","ARG_OF_PERICENTER":"102.5239","COUNTRY_CODE":"US","OBJECT_NAME":"STARLINK-1550","MEAN_ELEMENT_THEORY":"SGP4","LAUNCH_DATE":"2020-09-03","REF_FRAME":"TEME","MEAN_MOTION":"15.06397159","RCS_SIZE":"LARGE"},{"PERIOD":"95.592","SEMIMAJOR_AXIS":"6925.353","EPHEMERIS_TYPE":"0","OBJECT_ID":"2020-062AT","CENTER_NAME":"EARTH","NORAD_CAT_ID":"46366","PERIAPSIS":"546.248","INCLINATION":"53.0543","MEAN_MOTION_DOT":"0.00002284","SITE":"AFETR","ELEMENT_SET_NO":"999","BSTAR":"0.00017218000000","MEAN_MOTION_DDOT":"0.0000000000000","APOAPSIS":"548.187","EPOCH":"2022-10-07T21:21:20.287296","GP_ID":"214433211","CLASSIFICATION_TYPE":"U","DECAY_DATE":null,"TLE_LINE2":"2 46366  53.0543 177.7050 0001400 103.3843 256.7302 15.06398706116717","OBJECT_TYPE":"PAYLOAD","MEAN_ANOMALY":"256.7302","TLE_LINE1":"1 46366U 20062AT  22280.88981814  .00002284  00000-0  17218-3 0  9994","REF_FRAME":"TEME","MEAN_MOTION":"15.06398706","RCS_SIZE":"LARGE","LAUNCH_DATE":"2020-09-03","ARG_OF_PERICENTER":"103.3843","COUNTRY_CODE":"US","OBJECT_NAME":"STARLINK-1651","MEAN_ELEMENT_THEORY":"SGP4","ECCENTRICITY":"0.00014000","TIME_SYSTEM":"UTC","REV_AT_EPOCH":"11671","RA_OF_ASC_NODE":"177.7050","FILE":"3595773"},{"PERIOD":"95.592","EPHEMERIS_TYPE":"0","OBJECT_ID":"2020-062AV","SEMIMAJOR_AXIS":"6925.345","CENTER_NAME":"EARTH","MEAN_MOTION_DOT":"0.00001185","NORAD_CAT_ID":"46368","PERIAPSIS":"546.186","INCLINATION":"53.0544","SITE":"AFETR","BSTAR":"0.00009846500000","ELEMENT_SET_NO":"999","APOAPSIS":"548.234","MEAN_MOTION_DDOT":"0.0000000000000","DECAY_DATE":null,"CLASSIFICATION_TYPE":"U","EPOCH":"2022-10-07T11:46:03.665280","GP_ID":"214402152","TLE_LINE2":"2 46368  53.0544 204.4733 0001479  88.3177 271.7981 15.06401091116312","OBJECT_TYPE":"PAYLOAD","MEAN_ANOMALY":"271.7981","TLE_LINE1":"1 46368U 20062AV  22280.49032020  .00001185  00000-0  98465-4 0  9992","RCS_SIZE":"LARGE","REF_FRAME":"TEME","MEAN_MOTION":"15.06401091","LAUNCH_DATE":"2020-09-03","OBJECT_NAME":"STARLINK-1658","MEAN_ELEMENT_THEORY":"SGP4","COUNTRY_CODE":"US","ARG_OF_PERICENTER":"88.3177","REV_AT_EPOCH":"11631","RA_OF_ASC_NODE":"204.4733","FILE":"3595509","ECCENTRICITY":"0.00014790","TIME_SYSTEM":"UTC"},{"LAUNCH_DATE":"2020-09-03","RCS_SIZE":"LARGE","MEAN_MOTION":"15.06399112","REF_FRAME":"TEME","FILE":"3595572","REV_AT_EPOCH":"11643","RA_OF_ASC_NODE":"206.1417","TIME_SYSTEM":"UTC","ECCENTRICITY":"0.00014240","MEAN_ELEMENT_THEORY":"SGP4","OBJECT_NAME":"STARLINK-1670","COUNTRY_CODE":"US","ARG_OF_PERICENTER":"66.5130","OBJECT_TYPE":"PAYLOAD","TLE_LINE2":"2 46370  53.0538 206.1417 0001424  66.5130 293.6009 15.06399112116430","TLE_LINE1":"1 46370U 20062AX  22280.12268397  .00005605  00000-0  39490-3 0  9996","MEAN_ANOMALY":"293.6009","BSTAR":"0.00039490000000","ELEMENT_SET_NO":"999","SITE":"AFETR","MEAN_MOTION_DOT":"0.00005605","INCLINATION":"53.0538","NORAD_CAT_ID":"46370","PERIAPSIS":"546.230","CLASSIFICATION_TYPE":"U","DECAY_DATE":null,"EPOCH":"2022-10-07T02:56:39.895008","GP_ID":"214408571","APOAPSIS":"548.202","MEAN_MOTION_DDOT":"0.0000000000000","OBJECT_ID":"2020-062AX","EPHEMERIS_TYPE":"0","SEMIMAJOR_AXIS":"6925.351","PERIOD":"95.592","CENTER_NAME":"EARTH"}];
